TRANSIT 16 [?]          
1 02807U 67048A   15289.63413822  .00000069  00000-0  91231-4 0  9991
2 02807  89.6419 127.1384 0021587  43.9900  20.5822 13.50085465382571
TRANSIT 17 [?]          
1 02965U 67092A   15288.79891582  .00000060  00000-0  72899-4 0  9994
2 02965  89.2407 306.5423 0047076 203.7973 281.7105 13.52809858369171
TRANSIT 18 [?]          
1 03133U 68012A   15289.52682022  .00000071  00000-0  92809-4 0  9999
2 03133  89.9514 277.7816 0077234 113.6401   4.3431 13.50912096344692
NNSS 19 [?]             
1 04507U 70067A   15289.54671888  .00000075  00000-0  94575-4 0  9994
2 04507  89.8202 273.2880 0170731 234.6253 243.6734 13.50572224221736
NNSS O-20 [?]           
1 06909U 73081A   15289.50175246  .00000116  00000-0  10867-3 0  9991
2 06909  89.8381 323.2783 0158540  31.3612 329.6886 13.70343940295653
TRANSAT [?]             
1 10457U 77106A   15289.34785853  .00000089  00000-0  12604-3 0  9999
2 10457  89.7704 186.1911 0027226  87.8064  41.6688 13.48523018867541
NOVA I [?]              
1 12458U 81044A   15289.55458623  .00000028  00000-0  47087-4 0  9990
2 12458  89.9754 123.3050 0012511 249.2973 120.8706 13.22922793661540
NOVA 3 [?]              
1 15362U 84110A   15288.95875904  .00000057  00000-0  11360-3 0  9998
2 15362  90.0355  52.5678 0033338 114.7367   7.0516 13.22694236496403
OSCAR 30 [?]            
1 15935U 85066A   15289.21965358  .00000068  00000-0  10465-3 0  9995
2 15935  90.1219  42.7946 0170658 108.6934 319.6616 13.35562062469269
OSCAR 24 [?]            
1 15936U 85066B   15289.43208942  .00000054  00000-0  78369-4 0  9992
2 15936  90.1103  37.3218 0171507 112.0985 301.9497 13.35446453471396
POLAR BEAR [?]          
1 17070U 86088A   15289.27227336  .00000087  00000-0  79003-4 0  9990
2 17070  89.5497 356.4043 0040230 142.5889 250.9479 13.74672130450234
OSCAR 27 [?]            
1 18361U 87080A   15289.50812989  .00000044  00000-0  57897-4 0  9997
2 18361  90.3425 314.9406 0106260  46.1787 314.8085 13.44378135377251
OSCAR 29 [?]            
1 18362U 87080B   15288.96681869  .00000032  00000-0  38468-4 0  9998
2 18362  90.3430 315.1326 0108287  62.8058 359.3875 13.43975330376618
OSCAR 23 [?]            
1 19070U 88033A   15288.92024863  .00000079  00000-0  14135-3 0  9990
2 19070  90.3468 252.3192 0192042  57.0711 356.7846 13.27363272330205
OSCAR 32 [?]            
1 19071U 88033B   15289.01844377  .00000049  00000-0  81463-4 0  9998
2 19071  90.3467 252.4012 0190000  46.7584 355.4939 13.27553202330698
NOVA 11 [?]             
1 19223U 88052A   15289.53571227  .00000031  00000-0  51547-4 0  9997
2 19223  89.9648  89.0415 0031350 153.4611 276.0722 13.22611076319270
OSCAR 25 [?]            
1 19419U 88074A   15288.81923359  .00000076  00000-0  11591-3 0  9998
2 19419  89.9819  20.1383 0097107  29.4272  87.4765 13.42110135328581
OSCAR 31 [?]            
1 19420U 88074B   15288.85707913  .00000062  00000-0  91085-4 0  9992
2 19420  89.9824  20.1236 0095108  23.6204  91.8608 13.42124390328691
